H1 CPF  1  HTS 2022  6 16 12  6671 larets           NONE
H2  0304206 5557    27944 2022 06 16  0  0  0 2022 06 21  0  0  0   180 1 1  0 0 0
H5  0.0560 
H9 
10 0 59750  69480.00000  0     475986.792    2331394.118    6648478.435
10 0 59750  69660.00000  0     810012.538    1042325.487    6936813.986
10 0 59750  69840.00000  0    1080263.577    -292429.110    6972085.679
10 0 59750  70020.00000  0    1276414.600   -1622715.714    6753023.256
10 0 59750  70200.00000  0    1392126.237   -2898307.735    6287547.095
10 0 59750  70380.00000  0    1425248.234   -4070790.422    5592505.597
10 0 59750  70560.00000  0    1377829.282   -5095399.862    4693104.428
10 0 59750  70740.00000  0    1255937.503   -5932753.110    3622044.480
10 0 59750  70920.00000  0    1069295.652   -6550414.235    2418376.723
10 0 59750  71100.00000  0     830741.432   -6924214.031    1126097.320
10 0 59750  71280.00000  0     555535.864   -7039261.258    -207465.161
10 0 59750  71460.00000  0     260551.510   -6890586.960   -1533420.851
10 0 59750  71640.00000  0     -36617.010   -6483366.055   -2803165.676
10 0 59750  71820.00000  0    -318567.015   -5832714.387   -3970208.008
10 0 59750  72000.00000  0    -568982.209   -4963077.971   -4991901.831
10 0 59750  72180.00000  0    -773461.336   -3907245.502   -5831008.104
10 0 59750  72360.00000  0    -920239.264   -2705046.700   -6457026.308
10 0 59750  72540.00000  0   -1000768.241   -1401800.402   -6847258.932
10 0 59750  72720.00000  0   -1010137.917     -46582.143   -6987583.574
10 0 59750  72900.00000  0    -947319.432    1309622.437   -6872923.953
10 0 59750  73080.00000  0    -815224.897    2615816.514   -6507416.383
10 0 59750  73260.00000  0    -620582.603    3822889.408   -5904275.645
10 0 59750  73440.00000  0    -373629.549    4885461.807   -5085358.256
10 0 59750  73620.00000  0     -87630.713    5763615.232   -4080421.456
10 0 59750  73800.00000  0     221756.557    6424442.174   -2926087.437
10 0 59750  73980.00000  0     537249.780    6843345.201   -1664534.829
10 0 59750  74160.00000  0     840806.303    7005022.174    -341956.958
10 0 59750  74340.00000  0    1114544.566    6904078.976     993159.651
10 0 59750  74520.00000  0    1341672.270    6545228.037    2291861.352
10 0 59750  74700.00000  0    1507367.354    5943063.830    3506570.561
10 0 59750  74880.00000  0    1599569.461    5121433.657    4592865.923
10 0 59750  75060.00000  0    1609643.393    4112432.924    5511125.305
10 0 59750  75240.00000  0    1532876.303    2955078.891    6227956.156
10 0 59750  75420.00000  0    1368792.532    1693750.620    6717363.939
10 0 59750  75600.00000  0    1121275.350     376459.184    6961644.679
10 0 59750  75780.00000  0     798491.957    -946982.639    6951976.251
10 0 59750  75960.00000  0     412624.871   -2226826.690    6688713.496
10 0 59750  76140.00000  0     -20584.681   -3415243.904    6181378.037
10 0 59750  76320.00000  0    -482465.502   -4468103.868    5448335.077
10 0 59750  76500.00000  0    -952192.562   -5346616.190    4516172.314
10 0 59750  76680.00000  0   -1407691.386   -6018797.409    3418795.623
10 0 59750  76860.00000  0   -1826638.405   -6460697.975    2196233.818
10 0 59750  77040.00000  0   -2187510.346   -6657320.696     893192.961
10 0 59750  77220.00000  0   -2470631.807   -6603184.257    -442593.690
10 0 59750  77400.00000  0   -2659161.473   -6302493.962   -1762153.909
10 0 59750  77580.00000  0   -2739967.950   -5768907.756   -3017121.729
10 0 59750  77760.00000  0   -2704349.083   -5024907.003   -4161557.740
10 0 59750  77940.00000  0   -2548553.923   -4100804.763   -5153658.256
10 0 59750  78120.00000  0   -2274084.423   -3033455.612   -5957277.955
10 0 59750  78300.00000  0   -1887768.830   -1864738.021   -6543218.210
10 0 59750  78480.00000  0   -1401603.234    -639877.561   -6890243.059
10 0 59750  78660.00000  0    -832373.177     594314.417   -6985796.294
10 0 59750  78840.00000  0    -201072.367    1791217.873   -6826417.415
10 0 59750  79020.00000  0     467864.328    2906143.995   -6417857.481
10 0 59750  79200.00000  0    1147492.603    3897992.248   -5774894.783
10 0 59750  79380.00000  0    1809430.440    4730773.164   -4920841.340
10 0 59750  79560.00000  0    2425030.182    5374943.302   -3886749.105
10 0 59750  79740.00000  0    2966609.053    5808503.067   -2710323.462
10 0 59750  79920.00000  0    3408685.198    6017803.913   -1434571.026
10 0 59750  80100.00000  0    3729161.445    5998022.322    -106220.469
10 0 59750  80280.00000  0    3910390.148    5753266.491    1226024.237
10 0 59750  80460.00000  0    3940062.725    5296305.393    2513316.975
10 0 59750  80640.00000  0    3811878.387    4647938.815    3708507.842
10 0 59750  80820.00000  0    3525954.409    3836035.798    4767906.805
10 0 59750  81000.00000  0    3088961.034    2894301.333    5652890.540
10 0 59750  81180.00000  0    2513972.059    1860836.806    6331291.721
10 0 59750  81360.00000  0    1820057.606     776569.646    6778520.916
10 0 59750  81540.00000  0    1031633.311    -316376.695    6978404.571
10 0 59750  81720.00000  0     177592.964   -1376307.517    6923726.994
10 0 59750  81900.00000  0    -709746.710   -2363533.083    6616471.386
10 0 59750  82080.00000  0   -1595857.481   -3241842.591    6067749.288
10 0 59750  82260.00000  0   -2445322.325   -3979826.569    5297426.328
10 0 59750  82440.00000  0   -3223239.668   -4552015.455    4333459.040
10 0 59750  82620.00000  0   -3896666.779   -4939794.037    3210931.797
10 0 59750  82800.00000  0   -4436027.513   -5132045.045    1970811.479
10 0 59750  82980.00000  0   -4816422.767   -5125493.052     658462.908
10 0 59750  83160.00000  0   -5018782.181   -4924724.126    -678028.465
10 0 59750  83340.00000  0   -5030792.290   -4541873.991   -1989660.057
10 0 59750  83520.00000  0   -4847544.932   -3995994.134   -3228363.715
10 0 59750  83700.00000  0   -4471868.142   -3312128.878   -4348811.229
10 0 59750  83880.00000  0   -3914330.238   -2520162.029   -5310092.823
10 0 59750  84060.00000  0   -3192922.115   -1653494.107   -6077203.998
10 0 59750  84240.00000  0   -2332439.275    -747617.462   -6622287.880
10 0 59750  84420.00000  0   -1363594.748     161344.905   -6925598.558
10 0 59750  84600.00000  0    -321904.239    1038072.431   -6976162.924
10 0 59750  84780.00000  0     753610.386    1849402.402   -6772144.171
10 0 59750  84960.00000  0    1821865.587    2565569.629   -6320908.099
10 0 59750  85140.00000  0    2841273.087    3161296.621   -5638783.789
99
